SZ-21 MODULE            
1 66515U 25246C   25329.78641579  .00030245  00000+0  34794-3 0  9993
2 66515  41.4757 119.3718 0004875 149.9191 210.1929 15.61328484  1794
SHENZHOU-22             
1 66645U 25272A   25328.58140128  .00021413  00000+0  27858-3 0  9997
2 66645  41.4653 126.8581 0010743 261.2431  98.7190 15.58193834261197
CZ-2F R/B               
1 66646U 25272B   25329.84712896  .00391175  75674-5  31875-3 0  9999
2 66646  41.4660 118.9667 0113196 129.6659 231.4244 16.00754081   112
